     3.02           N: GNSS NAV DATA    G: GPS              RINEX VERSION / TYPE
cnvtToRINEX 3.14.0  convertToRINEX OPR  20200602 100327 UTC PGM / RUN BY / DATE 
----------------------------------------------------------- COMMENT             
GPSA   0.4657D-08  0.1490D-07 -0.5960D-07 -0.1192D-06       IONOSPHERIC CORR    
GPSB   0.8192D+05  0.8192D+05 -0.6554D+05 -0.5243D+06       IONOSPHERIC CORR    
GPUT  0.0000000000D+00 0.177635684D-14  61440    0          TIME SYSTEM CORR    
    18                                                      LEAP SECONDS        
                                                            END OF HEADER       
G26 2017 07 07 04 00 00-0.478617381305D-03 0.693489710102D-11 0.000000000000D+00
     0.760000000000D+02 0.775312500000D+02 0.462804991971D-08-0.269378814254D+01
     0.400654971600D-05 0.181048607919D-02 0.196136534214D-05 0.515372964859D+04
     0.446400000000D+06-0.204890966415D-07 0.102520058733D+01 0.242143869400D-07
     0.958586559926D+00 0.341343750000D+03 0.914310662538D-01-0.838320633705D-08
     0.180364655769D-09 0.100000000000D+01 0.195600000000D+04 0.000000000000D+00
     0.200000000000D+01 0.000000000000D+00 0.745058059692D-08 0.760000000000D+02
     0.439806000000D+06 0.400000000000D+01 0.000000000000D+00 0.000000000000D+00
G23 2017 07 07 04 00 00-0.214686151594D-03-0.568434188608D-12 0.000000000000D+00
     0.860000000000D+02-0.219687500000D+02 0.524593279987D-08 0.459993831218D+00
    -0.946223735809D-06 0.118538268143D-01 0.719353556633D-05 0.515371629906D+04
     0.446400000000D+06-0.633299350739D-07-0.106460488998D+01 0.134110450745D-06
     0.943931217770D+00 0.230125000000D+03-0.244216674054D+01-0.842392231875D-08
    -0.608596779070D-09 0.100000000000D+01 0.195600000000D+04 0.000000000000D+00
     0.200000000000D+01 0.000000000000D+00-0.204890966415D-07 0.860000000000D+02
     0.439806000000D+06 0.400000000000D+01 0.000000000000D+00 0.000000000000D+00
G 8 2017 07 07 04 00 00-0.655623152852D-04-0.125055521494D-11 0.000000000000D+00
     0.430000000000D+02-0.101593750000D+03 0.428589281035D-08 0.233104526361D+01
    -0.528432428837D-05 0.253264931962D-02 0.394880771637D-05 0.515365806198D+04
     0.446400000000D+06-0.931322574615D-08 0.207565615559D+01-0.260770320892D-07
     0.966964105136D+00 0.306750000000D+03-0.632134204938D+00-0.806355016494D-08
    -0.196436753808D-09 0.100000000000D+01 0.195600000000D+04 0.000000000000D+00
     0.200000000000D+01 0.000000000000D+00 0.512227416039D-08 0.430000000000D+02
     0.439806000000D+06 0.400000000000D+01 0.000000000000D+00 0.000000000000D+00
G27 2017 07 07 04 00 00 0.289196614176D-03 0.682121026330D-11 0.000000000000D+00
     0.114000000000D+03-0.102031250000D+03 0.413088635371D-08 0.183735319197D+01
    -0.535696744919D-05 0.488789426163D-02 0.422820448875D-05 0.515366834641D+04
     0.446400000000D+06-0.242143869400D-07 0.208155628853D+01-0.186264514923D-08
     0.975096684714D+00 0.305343750000D+03 0.386430100296D+00-0.804926385558D-08
    -0.234652631367D-09 0.100000000000D+01 0.195600000000D+04 0.000000000000D+00
     0.200000000000D+01 0.000000000000D+00 0.139698386192D-08 0.114000000000D+03
     0.439806000000D+06 0.400000000000D+01 0.000000000000D+00 0.000000000000D+00
G16 2017 07 07 04 00 00 0.357246026397D-04 0.341060513165D-12 0.000000000000D+00
     0.125000000000D+03 0.609062500000D+02 0.394302138552D-08 0.273414683539D+01
     0.299513339996D-05 0.930510356557D-02 0.198930501938D-05 0.515372253036D+04
     0.446400000000D+06-0.782310962677D-07 0.111600566509D+01-0.484287738800D-07
     0.989359432323D+00 0.358000000000D+03 0.461794301552D+00-0.795676000242D-08
     0.122147945095D-09 0.100000000000D+01 0.195600000000D+04 0.000000000000D+00
     0.280000000000D+01 0.000000000000D+00-0.107102096081D-07 0.125000000000D+03
     0.439806000000D+06 0.400000000000D+01 0.000000000000D+00 0.000000000000D+00
G 7 2017 07 07 04 00 00 0.331139191985D-03-0.454747350886D-11 0.000000000000D+00
     0.104000000000D+03 0.819375000000D+02 0.416695928487D-08-0.962789011547D+00
     0.415928661823D-05 0.107892722590D-01 0.954791903496D-05 0.515373762703D+04
     0.446400000000D+06 0.275671482086D-06 0.121779503691D-01 0.428408384323D-07
     0.962295521002D+00 0.197906250000D+03-0.258823665305D+01-0.780996817367D-08
    -0.233224000430D-09 0.100000000000D+01 0.195600000000D+04 0.000000000000D+00
     0.200000000000D+01 0.000000000000D+00-0.111758708954D-07 0.104000000000D+03
     0.439806000000D+06 0.400000000000D+01 0.000000000000D+00 0.000000000000D+00
G 1 2017 07 07 04 00 00 0.565932132304D-04 0.341060513165D-12 0.000000000000D+00
     0.450000000000D+02-0.477500000000D+02 0.414052961254D-08-0.336342648193D+00
    -0.234507024288D-05 0.684356782585D-02 0.102203339338D-04 0.515368844223D+04
     0.446400000000D+06 0.113621354103D-06 0.313869066592D+01 0.577419996262D-07
     0.968289460640D+00 0.188750000000D+03 0.575065587801D+00-0.779282460242D-08
     0.394302138552D-09 0.100000000000D+01 0.195600000000D+04 0.000000000000D+00
     0.200000000000D+01 0.000000000000D+00 0.558793544769D-08 0.450000000000D+02
     0.439818000000D+06 0.400000000000D+01 0.000000000000D+00 0.000000000000D+00
G11 2017 07 07 03 59 44-0.700498931110D-03-0.261479726760D-11 0.000000000000D+00
     0.320000000000D+02-0.833750000000D+02 0.565344977459D-08-0.942855839856D+00
    -0.426173210144D-05 0.169150290312D-01 0.932626426220D-05 0.515372250366D+04
     0.446384000000D+06-0.253319740295D-06 0.273370963208D+01 0.143423676491D-06
     0.901704717929D+00 0.174437500000D+03 0.165821870054D+01-0.877393689826D-08
     0.205722854897D-09 0.100000000000D+01 0.195600000000D+04 0.000000000000D+00
     0.200000000000D+01 0.000000000000D+00-0.121071934700D-07 0.320000000000D+02
     0.439818000000D+06 0.400000000000D+01 0.000000000000D+00 0.000000000000D+00
G 9 2017 07 07 04 00 00 0.400360208005D-03 0.784439180279D-11 0.000000000000D+00
     0.700000000000D+02-0.192187500000D+02 0.490341853278D-08 0.186340152508D+01
    -0.107660889626D-05 0.659634242766D-03 0.738166272640D-05 0.515359700775D+04
     0.446400000000D+06-0.670552253723D-07-0.106605392497D+01-0.465661287308D-07
     0.953067721953D+00 0.229343750000D+03 0.195708033570D+01-0.810319467344D-08
    -0.557880380814D-09 0.100000000000D+01 0.195600000000D+04 0.000000000000D+00
     0.200000000000D+01 0.000000000000D+00 0.139698386192D-08 0.700000000000D+02
     0.439818000000D+06 0.400000000000D+01 0.000000000000D+00 0.000000000000D+00
G30 2017 07 07 04 00 00 0.151310116053D-03-0.147792889038D-11 0.000000000000D+00
     0.660000000000D+02 0.915312500000D+02 0.446518599292D-08-0.986280433030D+00
     0.467337667942D-05 0.295983732212D-02 0.953674316406D-05 0.515366373825D+04
     0.446400000000D+06-0.186264514923D-08 0.504927052810D-01-0.782310962677D-07
     0.948013546261D+00 0.190187500000D+03-0.313525550020D+01-0.791890128260D-08
    -0.161078138122D-09 0.100000000000D+01 0.195600000000D+04 0.000000000000D+00
     0.200000000000D+01 0.000000000000D+00 0.372529029846D-08 0.660000000000D+02
     0.440382000000D+06 0.400000000000D+01 0.000000000000D+00 0.000000000000D+00
G16 2017 07 07 03 59 44 0.357246026397D-04 0.341060513165D-12 0.000000000000D+00
     0.300000000000D+01 0.609062500000D+02 0.394302138552D-08 0.273181319725D+01
     0.299513339996D-05 0.930510333274D-02 0.198930501938D-05 0.515372253036D+04
     0.446384000000D+06-0.782310962677D-07 0.111600581430D+01-0.484287738800D-07
     0.989359413305D+00 0.358000000000D+03 0.461794303015D+00-0.795711716015D-08
     0.121790787361D-09 0.100000000000D+01 0.195600000000D+04 0.000000000000D+00
     0.200000000000D+01 0.000000000000D+00-0.107102096081D-07 0.300000000000D+01
     0.440706000000D+06 0.400000000000D+01 0.000000000000D+00 0.000000000000D+00
G28 2017 07 07 03 59 44 0.626946799457D-03 0.295585778076D-11 0.000000000000D+00
     0.500000000000D+01 0.579062500000D+02 0.379658671450D-08 0.271106184034D+01
     0.297278165817D-05 0.197193281492D-01 0.157207250595D-05 0.515365296173D+04
     0.446384000000D+06 0.216066837311D-06 0.112054428358D+01-0.447034835815D-07
     0.988161994376D+00 0.359750000000D+03-0.156705455247D+01-0.764174688086D-08
     0.500020827875D-10 0.100000000000D+01 0.195600000000D+04 0.000000000000D+00
     0.200000000000D+01 0.000000000000D+00-0.111758708954D-07 0.500000000000D+01
     0.442518000000D+06 0.400000000000D+01 0.000000000000D+00 0.000000000000D+00
